NORAD_CAT_ID,OBJECT_NAME,OBJECT_TYPE,EPOCH,MEAN_MOTION,ECCENTRICITY,INCLINATION,RA_OF_ASC_NODE,ARG_OF_PERICENTER,MEAN_ANOMALY,BSTAR,MEAN_MOTION_DOT,MEAN_MOTION_DDOT,TLE_LINE0,TLE_LINE1,TLE_LINE2,SEMIMAJOR_AXIS,PERIOD,APOGEE,PERIGEE,DECAYED
54763.0,TBA - TO BE ASSIGNED,UNKNOWN,2022-12-27 18:00:00,15.77751357,0.0002445,53.2177,257.0045,266.4981,10.1336,-0.0076709999999999,-0.01170963,0.0,0 TBA - TO BE ASSIGNED,1 54763U 22175F   22361.75001157 -.01170963  00000-0 -76710-2 0  9994,2 54763  53.2177 257.0045 0002445 266.4981  10.1336 15.77751357  1302,6714.95,91.269,338.457,335.173,
54763.0,TBA - TO BE ASSIGNED,UNKNOWN,2022-12-27 22:00:00,15.77350016,0.0001333,53.2172,256.1758,292.5726,211.1175,-0.0082113,-0.01223439,0.0,0 TBA - TO BE ASSIGNED,1 54763U 22175F   22361.91667824 -.01223439  00000-0 -82113-2 0  9992,2 54763  53.2172 256.1758 0001333 292.5726 211.1175 15.77350016  1301,6716.089,91.292,338.849,337.059,
54763.0,STARLINK-5191,PAYLOAD,2022-12-28 08:00:01,15.76243305,9.24e-05,53.2171,254.103,49.6105,300.6249,-0.0083606,-0.01189508,0.0,0 STARLINK-5191,1 54763U 22175F   22362.33334491 -.01189508  00000-0 -83606-2 0  9996,2 54763  53.2171 254.1030 0000924  49.6105 300.6249 15.76243305  1394,6719.233,91.356,341.718,340.477,0.0
54763.0,STARLINK-5191,PAYLOAD,2022-12-28 14:00:01,15.75593621,9.73e-05,53.2172,252.8592,71.9103,257.465,-0.0086175,-0.01191026,0.0,0 STARLINK-5191,1 54763U 22175F   22362.58334491 -.01191026  00000-0 -86175-2 0  9995,2 54763  53.2172 252.8592 0000973  71.9103 257.4650 15.75593621  1307,6721.079000000002,91.394,343.598,342.291,0.0
54763.0,STARLINK-5191,PAYLOAD,2022-12-28 22:00:00,15.74731074,0.0001155,53.2172,251.2066,82.8467,337.7983,-0.0090335,-0.01200776,0.0,0 STARLINK-5191,1 54763U 22175F   22362.91667824 -.01200776  00000-0 -90335-2 0  9997,2 54763  53.2172 251.2066 0001155  82.8467 337.7983 15.74731074  1309,6723.534000000002,91.444,346.175,344.622,0.0
54763.0,STARLINK-5191,PAYLOAD,2022-12-29 00:00:00,15.74486394,0.0001314,53.2174,250.7937,82.5574,90.7491,-0.0086461,-0.01144003,0.0,0 STARLINK-5191,1 54763U 22175F   22363.00001157 -.01144003  00000-0 -86461-2 0  9994,2 54763  53.2174 250.7937 0001314  82.5574  90.7491 15.74486394  1497,6724.23,91.458,346.97900000000016,345.212,0.0
54763.0,STARLINK-5191,PAYLOAD,2022-12-29 08:00:01,15.73533196,0.0001361,53.2171,249.1414,73.14399999999998,190.1372,-0.0033033,-0.00446793,0.0,0 STARLINK-5191,1 54763U 22175F   22363.33334491 -.00446793  00000-0 -33033-2 0  9997,2 54763  53.2171 249.1414 0001361  73.1440 190.1372 15.73533196  1547,6726.945,91.514,349.726,347.895,0.0
54763.0,STARLINK-5191,PAYLOAD,2022-12-29 14:00:01,15.73366732,9.52e-05,53.2162,247.9043,79.7151,160.3868,-0.001717,-0.00236609,0.0,0 STARLINK-5191,1 54763U 22175F   22363.58334491 -.00236609  00000-0 -17170-2 0  9991,2 54763  53.2162 247.9043 0000952  79.7151 160.3868 15.73366732  1300,6727.42,91.523,349.925,348.644,0.0
54763.0,STARLINK-5191,PAYLOAD,2022-12-29 16:00:00,15.73320169,9.77e-05,53.2165,247.4913,80.859,271.518,-0.00151,-0.00208433,0.0,0 STARLINK-5191,1 54763U 22175F   22363.66667824 -.00208433  00000-0 -15100-2 0  9994,2 54763  53.2165 247.4913 0000977  80.8590 271.5180 15.73320169  1600,6727.553000000001,91.526,350.075,348.76,0.0
54763.0,STARLINK-5191,PAYLOAD,2022-12-30 00:00:00,15.73254553,0.0001143,53.2149,245.8467,72.4239,8.9884,-0.00037728,-0.00053356,0.0,0 STARLINK-5191,1 54763U 22175F   22364.00001157 -.00053356  00000-0 -37728-3 0  9997,2 54763  53.2149 245.8467 0001143  72.4239   8.9884 15.73254553  1652,6727.74,91.53,350.374,348.836,0.0
54763.0,STARLINK-5191,PAYLOAD,2022-12-30 14:00:01,15.73204918,0.0001226,53.2172,242.9536,81.3244,65.6563,-1.3897e-05,-2.57e-05,0.0,0 STARLINK-5191,1 54763U 22175F   22364.58334491 -.00002570  00000-0 -13897-4 0  9994,2 54763  53.2172 242.9536 0001226  81.3244  65.6563 15.73204918  1306,6727.880999999999,91.533,350.571,348.921,0.0
54763.0,STARLINK-5191,PAYLOAD,2022-12-30 16:00:00,15.73203778,0.0001238,53.2174,242.5413,81.3736,177.8405,1.5932e-05,1.617e-05,0.0,0 STARLINK-5191,1 54763U 22175F   22364.66667824  .00001617  00000-0  15932-4 0  9993,2 54763  53.2174 242.5413 0001238  81.3736 177.8405 15.73203778  1750,6727.884,91.533,350.582,348.916,0.0
54763.0,STARLINK-5191,PAYLOAD,2022-12-31 00:00:00,15.7322828,8.9e-05,53.2152,240.8979,68.1008,280.1397,0.00029327,0.00040788,0.0,0 STARLINK-5191,1 54763U 22175F   22365.00001157  .00040788  00000-0  29327-3 0  9997,2 54763  53.2152 240.8979 0000890  68.1008 280.1397 15.73228280  1812,6727.815,91.532,350.278,349.081,0.0
54763.0,STARLINK-5191,PAYLOAD,2022-12-31 14:00:01,15.73225683,0.0001217999999999,53.215,238.009,84.859,329.0817,-0.00016772,-0.00024116,0.0,0 STARLINK-5191,1 54763U 22175F   22365.58334491 -.00024116  00000-0 -16772-3 0  9999,2 54763  53.2150 238.0090 0001218  84.8590 329.0817 15.73225683  1307,6727.821999999999,91.532,350.506,348.86800000000005,0.0
54763.0,STARLINK-5191,PAYLOAD,2022-12-31 16:00:00,15.73235504,0.0001312,53.2152,237.5969,86.9322,79.2435,-0.00038746,-0.00054727,0.0,0 STARLINK-5191,1 54763U 22175F   22365.66667824 -.00054727  00000-0 -38746-3 0  9993,2 54763  53.2152 237.5969 0001312  86.9322  79.2435 15.73235504  1919,6727.794,91.531,350.542,348.776,0.0
54763.0,STARLINK-5191,PAYLOAD,2022-12-31 22:00:00,15.73189219,0.0001425,53.2147,236.3614,77.4205,65.4615,-0.00069243,-0.00096646,0.0,0 STARLINK-5191,1 54763U 22175F   22365.91667824 -.00096646  00000-0 -69243-3 0  9993,2 54763  53.2147 236.3614 0001425  77.4205  65.4615 15.73189219  1308,6727.926,91.534,350.75,348.832,0.0
54763.0,STARLINK-5191,PAYLOAD,2023-01-01 00:00:00,15.73147141,0.0001486999999999,53.2148,235.9495,76.3056,178.8082,-0.00019342,-0.00027615,0.0,0 STARLINK-5191,1 54763U 22175F   23001.00001157 -.00027615  00000-0 -19342-3 0  9997,2 54763  53.2148 235.9495 0001487  76.3056 178.8082 15.73147141  1968,6728.045999999999,91.536,350.911,348.91,0.0
54763.0,STARLINK-5191,PAYLOAD,2023-01-01 14:00:01,15.73087611,0.0001419999999999,53.215,233.0592,89.1891,231.4254,0.00080513,0.00113363,0.0,0 STARLINK-5191,1 54763U 22175F   23001.58334491  .00113363  00000-0  80513-3 0  9992,2 54763  53.2150 233.0592 0001420  89.1891 231.4254 15.73087611  1304,6728.215999999999,91.54,351.036,349.125,0.0
54763.0,STARLINK-5191,PAYLOAD,2023-01-02 00:00:00,15.73431296,0.0001425,53.2165,230.9984,91.9645,69.6473,-0.0048718,-0.00640992,0.0,0 STARLINK-5191,1 54763U 22175F   23002.00001157 -.00640992  00000-0 -48718-2 0  9995,2 54763  53.2165 230.9984 0001425  91.9645  69.6473 15.73431296  1300,6727.236,91.52,350.059,348.142,0.0
54763.0,STARLINK-5191,PAYLOAD,2023-01-02 00:50:26,15.73160422,0.0001345,53.2148,230.8263,89.359,270.7584,0.00040778,0.00056901,0.0,0 STARLINK-5191,1 54763U 22175F   23002.03503338  .00056901  00000-0  40778-3 0  9994,2 54763  53.2148 230.8263 0001345  89.3590 270.7584 15.73160422  2131,6728.0080000000025,91.535,350.778,348.968,0.0
54763.0,STARLINK-5191,PAYLOAD,2023-01-02 02:21:55,15.73185229,0.0001020999999999,53.2148,230.512,104.8732,255.2402,0.00047884,0.00067077,0.0,0 STARLINK-5191,1 54763U 22175F   23002.09856036  .00067077  00000-0  47884-3 0  9997,2 54763  53.2148 230.5120 0001021 104.8732 255.2402 15.73185229  2142,6727.937,91.534,350.48900000000015,349.115,0.0
54763.0,STARLINK-5191,PAYLOAD,2023-01-02 14:33:39,15.73954635,0.0005128999999999,53.2146,227.9968,206.3478,153.7282,0.0053716,0.00863031,0.0,0 STARLINK-5191,1 54763U 22175F   23002.60670251  .00863031  00000-0  53716-2 0  9991,2 54763  53.2146 227.9968 0005129 206.3478 153.7282 15.73954635  2220,6725.745,91.489,351.059,344.16,0.0
54763.0,STARLINK-5191,PAYLOAD,2023-01-02 22:11:31,15.72546156,0.0001692,53.2144,226.4274,259.0241,101.0589,-0.0011741,-0.00157886,0.0,0 STARLINK-5191,1 54763U 22175F   23002.92467097 -.00157886  00000-0 -11741-2 0  9996,2 54763  53.2144 226.4274 0001692 259.0241 101.0589 15.72546156  2271,6729.76,91.571,352.764,350.486,0.0
54763.0,STARLINK-5191,PAYLOAD,2023-01-03 01:14:39,15.71992539,0.0001291999999999,53.2144,225.7995,200.8594,159.2374,-0.0050634999999999,-0.00627325,0.0,0 STARLINK-5191,1 54763U 22175F   23003.05185173 -.00627325  00000-0 -50635-2 0  9998,2 54763  53.2144 225.7995 0001292 200.8594 159.2374 15.71992539  2292,6731.34,91.603,354.075,352.335,0.0
54763.0,STARLINK-5191,PAYLOAD,2023-01-03 14:00:01,15.69762604,0.0001174,53.217,223.1763,72.3105,53.4342,-0.0109579999999999,-0.01199951,0.0,0 STARLINK-5191,1 54763U 22175F   23003.58334491 -.01199951  00000-0 -10958-1 0  9998,2 54763  53.2170 223.1763 0001174  72.3105  53.4342 15.69762604  1301,6737.7130000000025,91.734,360.369,358.787,0.0
54763.0,STARLINK-5191,PAYLOAD,2023-01-03 16:00:01,15.69543841,0.0001189,53.2174,222.7659,81.8788,155.097,-0.010993,-0.01193511,0.0,0 STARLINK-5191,1 54763U 22175F   23003.66668981 -.01193511  00000-0 -10993-1 0  9996,2 54763  53.2174 222.7659 0001189  81.8788 155.0970 15.69543841  2387,6738.339,91.746,361.005,359.403,0.0
54763.0,STARLINK-5191,PAYLOAD,2023-01-04 14:00:01,15.67193285,0.0001052,53.217,218.2624,68.5615,306.9601,-0.012203,-0.01201215,0.0,0 STARLINK-5191,1 54763U 22175F   23004.58335648 -.01201215  00000-0 -12203-1 0  9996,2 54763  53.2170 218.2624 0001052  68.5615 306.9601 15.67193285  1305,6745.075,91.884,367.65,366.231,0.0
54763.0,STARLINK-5191,PAYLOAD,2023-01-04 16:00:00,15.66972781,0.0001226,53.2175,217.8538,67.1313,58.7194,-0.012222,-0.01193219,0.0,0 STARLINK-5191,1 54763U 22175F   23004.66667824 -.01193219  00000-0 -12222-1 0  9994,2 54763  53.2175 217.8538 0001226  67.1313  58.7194 15.66972781  2543,6745.708000000001,91.897,368.4,366.746,0.0
54763.0,STARLINK-5191,PAYLOAD,2023-01-04 22:00:00,15.66333354,0.0001118,53.2174,216.6304,83.0599,13.5749,-0.0126,-0.01197922,0.0,0 STARLINK-5191,1 54763U 22175F   23004.91667824 -.01197922  00000-0 -12600-1 0  9997,2 54763  53.2174 216.6304 0001118  83.0599  13.5749 15.66333354  1308,6747.544,91.934,370.163,368.654,0.0
